{
    "links": {
        "self": "http://www.neowsapp.com/rest/v1/neo/3653044?api_key=iIulBulltgU6a56xZRHN4H3l9WmuAYTsLGpBGhQ2"
    },
    "id": "3653044",
    "neo_reference_id": "3653044",
    "name": "(2013 UP1)",
    "designation": "2013 UP1",
    "nasa_jpl_url": "http://ssd.jpl.nasa.gov/sbdb.cgi?sstr=3653044",
    "absolute_magnitude_h": 23.6,
    "estimated_diameter": {
        "kilometers": {
            "estimated_diameter_min": 0.0506471459,
            "estimated_diameter_max": 0.1132504611
        },
        "meters": {
            "estimated_diameter_min": 50.6471458835,
            "estimated_diameter_max": 113.2504610618
        },
        "miles": {
            "estimated_diameter_min": 0.0314706677,
            "estimated_diameter_max": 0.0703705522
        },
        "feet": {
            "estimated_diameter_min": 166.1651821003,
            "estimated_diameter_max": 371.5566426699
        }
    },
    "is_potentially_hazardous_asteroid": false,
    "close_approach_data": [
        {
            "close_approach_date": "2013-10-14",
            "close_approach_date_full": "2013-Oct-14 16:09",
            "epoch_date_close_approach": 1381766940000,
            "relative_velocity": {
                "kilometers_per_second": "5.4537158297",
                "kilometers_per_hour": "19633.3769870848",
                "miles_per_hour": "12199.4169395584"
            },
            "miss_distance": {
                "astronomical": "0.13172879",
                "lunar": "51.24249931",
                "kilometers": "19706346.4016773",
                "miles": "12244955.84785474"
            },
            "orbiting_body": "Earth"
        }
    ],
    "orbital_data": {
        "orbit_id": "11",
        "orbit_determination_date": "2017-04-06 08:44:05",
        "first_observation_date": "2013-10-23",
        "last_observation_date": "2013-11-10",
        "data_arc_in_days": 18,
        "observations_used": 38,
        "orbit_uncertainty": "7",
        "minimum_orbit_intersection": ".128677",
        "jupiter_tisserand_invariant": "3.263",
        "epoch_osculation": "2459000.5",
        "eccentricity": ".5479217266398527",
        "semi_major_axis": "2.458542558154468",
        "inclination": "4.210525004619051",
        "ascending_node_longitude": "333.8347426100381",
        "orbital_period": "1408.040097355234",
        "perihelion_distance": "1.111453674672911",
        "perihelion_argument": "51.33134982778405",
        "aphelion_distance": "3.805631441636024",
        "perihelion_time": "2459399.666846742917",
        "mean_anomaly": "257.9432012643912",
        "mean_motion": ".2556745370222051",
        "equinox": "J2000",
        "orbit_class": {
            "orbit_class_type": "AMO",
            "orbit_class_description": "Near-Earth asteroid orbits similar to that of 1221 Amor",
            "orbit_class_range": "1.017 AU < q (perihelion) < 1.3 AU"
        }
    },
    "is_sentry_object": false
}